NORAD_CAT_ID,OBJECT_NAME,OBJECT_TYPE,EPOCH,MEAN_MOTION,ECCENTRICITY,INCLINATION,RA_OF_ASC_NODE,ARG_OF_PERICENTER,MEAN_ANOMALY,BSTAR,MEAN_MOTION_DOT,MEAN_MOTION_DDOT,TLE_LINE0,TLE_LINE1,TLE_LINE2,SEMIMAJOR_AXIS,PERIOD,APOGEE,PERIGEE,DECAYED
51139.0,STARLINK-3172,PAYLOAD,2024-04-04 15:27:56,15.08839213,0.0001133,53.218,219.7156,87.4443,272.6679,-1.4091e-05,-5.12e-06,0.0,0 STARLINK-3172,1 51139U 22005AM  24095.64440796 -.00000512  00000-0 -14091-4 0  9997,2 51139  53.2180 219.7156 0001133  87.4443 272.6679 15.08839213122452,6917.883,95.438,540.532,538.964,0.0
51139.0,STARLINK-3172,PAYLOAD,2024-04-05 12:07:56,15.08842781,0.0001228,53.2184,215.8495,88.3819,271.7314,0.00011014,1.466e-05,0.0,0 STARLINK-3172,1 51139U 22005AM  24096.50552074  .00001466  00000-0  11014-3 0  9994,2 51139  53.2184 215.8495 0001228  88.3819 271.7314 15.08842781123698,6917.872,95.437,540.586,538.887,0.0
51139.0,STARLINK-3172,PAYLOAD,2024-04-05 13:43:19,15.08846641,0.0001185,53.2177,215.5515,86.5452,273.5675,9.4563e-05,1.218e-05,0.0,0 STARLINK-3172,1 51139U 22005AM  24096.57175869  .00001218  00000-0  94563-4 0  9990,2 51139  53.2177 215.5515 0001185  86.5452 273.5675 15.08846641122592,6917.86,95.437,540.545,538.905,0.0
51139.0,STARLINK-3172,PAYLOAD,2024-04-05 16:54:05,15.08851139,0.0001175,53.2177,214.9565,83.6648,276.4478,0.00012915,1.769e-05,0.0,0 STARLINK-3172,1 51139U 22005AM  24096.70423428  .00001769  00000-0  12915-3 0  9993,2 51139  53.2177 214.9565 0001175  83.6648 276.4478 15.08851139123721,6917.846,95.437,540.524,538.898,0.0
51139.0,STARLINK-3172,PAYLOAD,2024-04-06 07:12:35,15.08837277,0.000144,53.218,212.2804,76.8565,283.2587,4.3076e-05,3.98e-06,0.0,0 STARLINK-3172,1 51139U 22005AM  24097.30040646  .00000398  00000-0  43076-4 0  9997,2 51139  53.2180 212.2804 0001440  76.8565 283.2587 15.08837277123813,6917.889,95.438,540.75,538.758,0.0
51139.0,STARLINK-3172,PAYLOAD,2024-04-07 13:24:54,15.08844808,0.0001354,53.2168,206.6304,91.5589,268.5558,-7.4196e-05,-1.469e-05,0.0,0 STARLINK-3172,1 51139U 22005AM  24098.55896548 -.00001469  00000-0 -74196-4 0  9994,2 51139  53.2168 206.6304 0001354  91.5589 268.5558 15.08844808122894,6917.866,95.437,540.667,538.794,0.0
51139.0,STARLINK-3172,PAYLOAD,2024-04-08 13:15:41,15.08840838,0.0001477,53.2158,202.1703,86.8612,273.2549,8.6256e-05,1.085e-05,0.0,0 STARLINK-3172,1 51139U 22005AM  24099.55256316  .00001085  00000-0  86256-4 0  9990,2 51139  53.2158 202.1703 0001477  86.8612 273.2549 15.08840838123047,6917.878,95.438,540.765,538.721,0.0
51139.0,STARLINK-3172,PAYLOAD,2024-04-09 00:23:23,15.08839179,0.0001438,53.2155,200.0886,87.2166,272.899,8.2682e-05,1.028e-05,0.0,0 STARLINK-3172,1 51139U 22005AM  24100.01624404  .00001028  00000-0  82682-4 0  9997,2 51139  53.2155 200.0886 0001438  87.2166 272.8990 15.08839179123118,6917.883,95.438,540.743,538.753,0.0
51139.0,STARLINK-3172,PAYLOAD,2024-04-09 13:06:28,15.08842136,0.0001458,53.2165,197.7095,88.7379,271.378,9.4793e-05,1.221e-05,0.0,0 STARLINK-3172,1 51139U 22005AM  24100.54616226  .00001221  00000-0  94793-4 0  9999,2 51139  53.2165 197.7095 0001458  88.7379 271.3780 15.08842136123193,6917.874,95.437,540.747,538.73,0.0
51139.0,STARLINK-3172,PAYLOAD,2024-04-10 12:57:15,15.08842139,0.0001401,53.2188,193.2485,93.7352,266.38,7.5597e-05,9.15e-06,0.0,0 STARLINK-3172,1 51139U 22005AM  24101.53976156  .00000915  00000-0  75597-4 0  9990,2 51139  53.2188 193.2485 0001401  93.7352 266.3800 15.08842139124457,6917.874,95.437,540.708,538.77,0.0
51139.0,STARLINK-3172,PAYLOAD,2024-04-11 04:51:07,15.08837755,0.0001517,53.2184,190.2762,92.1463,267.9702,-1.1802e-05,-4.76e-06,0.0,0 STARLINK-3172,1 51139U 22005AM  24102.20216708 -.00000476  00000-0 -11802-4 0  9998,2 51139  53.2184 190.2762 0001517  92.1463 267.9702 15.08837755124559,6917.887,95.438,540.802,538.703,0.0
51139.0,STARLINK-3172,PAYLOAD,2024-04-11 12:48:03,15.08837583,0.0001466,53.2188,188.7908,86.9729,273.143,-6.3341e-05,-1.296e-05,0.0,0 STARLINK-3172,1 51139U 22005AM  24102.53337036 -.00001296  00000-0 -63341-4 0  9998,2 51139  53.2188 188.7908 0001466  86.9729 273.1430 15.08837583123494,6917.888,95.438,540.767,538.739,0.0
51139.0,STARLINK-3172,PAYLOAD,2024-04-12 11:03:27,15.08836952,0.0001413,53.2178,184.6269,88.6217,271.4937,6.8299e-06,-1.79e-06,0.0,0 STARLINK-3172,1 51139U 22005AM  24103.46073160 -.00000179  00000-0  68299-5 0  9992,2 51139  53.2178 184.6269 0001413  88.6217 271.4937 15.08836952124742,6917.89,95.438,540.732,538.777,0.0
51139.0,STARLINK-3172,PAYLOAD,2024-04-13 12:29:37,15.08841671,0.0001437,53.2175,179.8682,78.757,281.3584,0.00011395,1.526e-05,0.0,0 STARLINK-3172,1 51139U 22005AM  24104.52056893  .00001526  00000-0  11395-3 0  9993,2 51139  53.2175 179.8682 0001437  78.7570 281.3584 15.08841671124902,6917.875,95.437,540.734,538.746,0.0
51139.0,STARLINK-3172,PAYLOAD,2024-04-14 12:20:25,15.08835704,0.0001785,53.2177,175.4087,67.0253,293.0928,1.8406e-05,5e-08,0.0,0 STARLINK-3172,1 51139U 22005AM  24105.51417944  .00000005  00000-0  18406-4 0  9993,2 51139  53.2177 175.4087 0001785  67.0253 293.0928 15.08835704125059,6917.894,95.438,540.993,538.524,0.0
51139.0,STARLINK-3172,PAYLOAD,2024-04-15 10:35:47,15.08849673,0.0001539,53.2179,171.2458,71.6777,288.4383,0.00010669,1.411e-05,0.0,0 STARLINK-3172,1 51139U 22005AM  24106.44152671  .00001411  00000-0  10669-3 0  9993,2 51139  53.2179 171.2458 0001539  71.6777 288.4383 15.08849673125194,6917.851,95.437,540.78,538.651,0.0
51139.0,STARLINK-3172,PAYLOAD,2024-04-16 10:26:34,15.08845299,0.0001405,53.2174,166.7817,102.8097,257.3052,0.00010063,1.314e-05,0.0,0 STARLINK-3172,1 51139U 22005AM  24107.43512684  .00001314  00000-0  10063-3 0  9997,2 51139  53.2174 166.7817 0001405 102.8097 257.3052 15.08845299125346,6917.864,95.437,540.701,538.757,0.0
51139.0,STARLINK-3172,PAYLOAD,2024-04-17 03:55:50,15.08843876,0.0001402,53.2183,163.5138,79.2261,280.8889,-2.73e-05,-7.22e-06,0.0,0 STARLINK-3172,1 51139U 22005AM  24108.16377377 -.00000722  00000-0 -27300-4 0  9993,2 51139  53.2183 163.5138 0001402  79.2261 280.8889 15.08843876125454,6917.869,95.437,540.703,538.764,0.0
51139.0,STARLINK-3172,PAYLOAD,2024-04-17 10:17:22,15.088424,0.0001419,53.2172,162.3237,81.2873,278.828,-3.7855e-05,-8.9e-06,0.0,0 STARLINK-3172,1 51139U 22005AM  24108.42873423 -.00000890  00000-0 -37855-4 0  9997,2 51139  53.2172 162.3237 0001419  81.2873 278.8280 15.08842400124384,6917.873,95.437,540.72,538.756,0.0
51139.0,STARLINK-3172,PAYLOAD,2024-04-18 03:46:38,15.08827917,0.0001539,53.2167,159.0506,92.4653,267.6515,1.0076e-06,-2.72e-06,0.0,0 STARLINK-3172,1 51139U 22005AM  24109.15738455 -.00000272  00000-0  10076-5 0  9993,2 51139  53.2167 159.0506 0001539  92.4653 267.6515 15.08827917125602,6917.917,95.438,540.847,538.718,0.0
51139.0,STARLINK-3172,PAYLOAD,2024-04-18 10:08:10,15.08832016,0.000157,53.2178,157.8618,103.6348,256.4819,-8.4004e-05,-1.624e-05,0.0,0 STARLINK-3172,1 51139U 22005AM  24109.42234619 -.00001624  00000-0 -84004-4 0  9990,2 51139  53.2178 157.8618 0001570 103.6348 256.4819 15.08832016124535,6917.905,95.438,540.856,538.684,0.0
51139.0,STARLINK-3172,PAYLOAD,2024-04-19 03:37:26,15.08818977,0.000141,53.2176,154.59,101.678,258.437,-1.2869e-05,-4.93e-06,0.0,0 STARLINK-3172,1 51139U 22005AM  24110.15100015 -.00000493  00000-0 -12869-4 0  9997,2 51139  53.2176 154.5900 0001410 101.6780 258.4370 15.08818977125751,6917.945,95.439,540.785,538.834,0.0
51139.0,STARLINK-3172,PAYLOAD,2024-04-19 11:34:21,15.08827741,0.0001638,53.2183,153.1032,106.6272,253.49,3.9539e-05,3.41e-06,0.0,0 STARLINK-3172,1 51139U 22005AM  24110.48219658  .00000341  00000-0  39539-4 0  9990,2 51139  53.2183 153.1032 0001638 106.6272 253.4900 15.08827741125802,6917.918,95.438,540.916,538.65,0.0
51139.0,STARLINK-3172,PAYLOAD,2024-04-20 03:28:11,15.08845679,0.0001109,53.2159,150.1283,76.7814,283.3302,0.00019721,2.853e-05,0.0,0 STARLINK-3172,1 51139U 22005AM  24111.14458260  .00002853  00000-0  19721-3 0  9998,2 51139  53.2159 150.1283 0001109  76.7814 283.3302 15.08845679125901,6917.863,95.437,540.495,538.961,0.0
51139.0,STARLINK-3172,PAYLOAD,2024-04-20 09:49:43,15.08863437,0.0001857,53.2178,148.9419,84.5978,275.5226,0.00011427,1.532e-05,0.0,0 STARLINK-3172,1 51139U 22005AM  24111.40953351  .00001532  00000-0  11427-3 0  9996,2 51139  53.2178 148.9419 0001857  84.5978 275.5226 15.08863437125940,6917.809,95.436,540.958,538.389,0.0
51139.0,STARLINK-3172,PAYLOAD,2024-04-21 11:15:55,15.08843267,0.0001698,53.2178,144.1832,95.3098,264.8088,0.00012323,1.674e-05,0.0,0 STARLINK-3172,1 51139U 22005AM  24112.46938870  .00001674  00000-0  12323-3 0  9995,2 51139  53.2178 144.1832 0001698  95.3098 264.8088 15.08843267124993,6917.87,95.437,540.91,538.561,0.0
51139.0,STARLINK-3172,PAYLOAD,2024-04-22 01:34:23,15.08846525,0.0001663,53.2168,141.5068,97.393,262.7251,-0.00023488,-4.025e-05,0.0,0 STARLINK-3172,1 51139U 22005AM  24113.06555383 -.00004025  00000-0 -23488-3 0  9995,2 51139  53.2168 141.5068 0001663  97.3930 262.7251 15.08846525126196,6917.86,95.437,540.876,538.575,0.0
51139.0,STARLINK-3172,PAYLOAD,2024-04-22 09:31:19,15.08844823,0.0001899,53.2177,140.0215,78.2765,281.844,-0.00021393,-3.692e-05,0.0,0 STARLINK-3172,1 51139U 22005AM  24113.39675541 -.00003692  00000-0 -21393-3 0  9992,2 51139  53.2177 140.0215 0001899  78.2765 281.8440 15.08844823125133,6917.866,95.437,541.044,538.417,0.0
51139.0,STARLINK-3172,PAYLOAD,2024-04-22 11:06:42,15.08846295,0.0001889,53.2178,139.7223,82.1787,277.942,-0.00018208,-3.185e-05,0.0,0 STARLINK-3172,1 51139U 22005AM  24113.46299317 -.00003185  00000-0 -18208-3 0  9991,2 51139  53.2178 139.7223 0001889  82.1787 277.9420 15.08846295125145,6917.861,95.437,541.033,538.419,0.0
51139.0,STARLINK-3172,PAYLOAD,2024-04-23 07:46:43,15.08844723,0.0001993,53.2177,135.8569,82.9027,277.2192,0.00013809,1.91e-05,0.0,0 STARLINK-3172,1 51139U 22005AM  24114.32411045  .00001910  00000-0  13809-3 0  9995,2 51139  53.2177 135.8569 0001993  82.9027 277.2192 15.08844723126385,6917.866,95.437,541.11,538.352,0.0
